LEMUR-2-ALISIA          
1 62706U 25009DB  26117.18393203  .00011301  00000+0  86718-3 0  9991
2 62706  97.6918 199.7267 0003080  42.1305 318.0155 15.01950874 92509
LEMUR-2-ROUNDTRIPPER    
1 62711U 25009DG  26117.17605285  .00011909  00000+0  88938-3 0  9992
2 62711  97.7240 199.9641 0002910 315.5474  44.5517 15.02969005 69961
LEMUR-2-MYNAMEISJEFF    
1 62712U 25009DH  26117.17451247  .00011596  00000+0  86628-3 0  9996
2 62712  97.7290 200.3125 0002105  15.2084 344.9204 15.02964840 69960
LEMUR-2-LEIA-PHILIP     
1 63246U 25052AN  26117.14434593  .00002147  00000+0  19073-3 0  9991
2 63246  97.6894   9.9457 0005093  50.4896 309.6776 14.97169017 61032
LEMUR-2-LIA-MARTIN      
1 63248U 25052AQ  26116.69273488  .00005994  00000+0  52123-3 0  9992
2 63248  97.6942   9.9120 0003525  23.5554 336.5829 14.97329649 60974
LEMUR-2-DELOITTE-1      
1 63259U 25052BB  26117.19842175  .00005090  00000+0  44459-3 0  9995
2 63259  97.6990  10.7337 0000851  61.0723 299.0585 14.97233110 61063
LEMUR-2-EMERSONROSE     
1 63261U 25052BD  26116.68974337  .00004662  00000+0  39270-3 0  9996
2 63261  97.6946  10.6878 0000815 199.8116 160.3075 14.98690347 61022
LEMUR-2-MARACHE-FRAN    
1 63262U 25052BE  26117.16333821  .00007263  00000+0  59588-3 0  9992
2 63262  97.6927  11.4001 0002911 183.8759 176.2442 14.99516735 61117
LEMUR-2-THEFALCONER     
1 63264U 25052BG  26117.15092538  .00004574  00000+0  40211-3 0  9995
2 63264  97.6914  10.3616 0002338 136.5496 223.5911 14.97025905 61053
LEMUR-2-UNTITLED-SC     
1 63351U 25061A   26117.17388973  .00004508  00000+0  25707-3 0  9995
2 63351  97.5607  92.9331 0020834  81.9333 278.4261 15.13103127 59878
LEMUR-2-ESPERANZA       
1 63352U 25061B   26116.88960602  .00004498  00000+0  25598-3 0  9994
2 63352  97.5612  92.7328 0020346  82.2369 278.1171 15.13186313 59831
LEMUR-2-KREMPEL-BRO2    
1 63353U 25061C   26117.19559284  .00005023  00000+0  28186-3 0  9991
2 63353  97.5661  93.5048 0021280  74.4782 285.8797 15.13616300 59893
LEMUR-2-THERMORAPTOR    
1 63354U 25061D   26117.18016367  .00004842  00000+0  27136-3 0  9993
2 63354  97.5667  93.5557 0021033  73.7051 286.6492 15.13685376 59892
LEMUR-2-NEUROSPICY      
1 63355U 25061E   26116.89125213  .00004927  00000+0  27549-3 0  9994
2 63355  97.5592  92.9349 0018825  77.9964 282.3376 15.13795194 59856
LEMUR-2-TILLINFINITY    
1 63356U 25061F   26116.88035132  .00005388  00000+0  29590-3 0  9994
2 63356  97.5579  93.1785 0019931  67.2209 293.1125 15.14379022 59875
LEMUR-2-KREMPEL-BRO1    
1 63357U 25061G   26117.17768468  .00004714  00000+0  26058-3 0  9991
2 63357  97.5578  93.4039 0020632  67.3683 292.9728 15.14195763 59916
